ATLAS CENTAUR R/B       
1 06155U 72065B   25317.32932830  .00003415  00000+0  47213-3 0  9997
2 06155  35.0017 267.4649 0033111 112.0639 248.3583 14.77298935824040
SL-8 R/B                
1 08459U 75112B   25317.75337404  .00000757  00000+0  25808-3 0  9997
2 08459  74.0610 232.1708 0015784 347.6237  12.4527 14.38119127615208
SL-3 R/B                
1 10114U 77057B   25317.82259772  .00018703  00000+0  43954-3 0  9999
2 10114  97.5679 120.0473 0007425 351.0573   9.0540 15.42031010650456
SEASAT 1                
1 10967U 78064A   25317.76584334  .00001222  00000+0  38079-3 0  9992
2 10967 108.0066 242.2569 0002324 255.0719 105.0169 14.46014670489754
SL-14 R/B               
1 11267U 79011B   25317.40820887  .00001481  00000+0  14428-3 0  9995
2 11267  82.5260 206.8575 0017704  86.0634 274.2609 14.91719132511444
SL-8 R/B                
1 11574U 79089B   25317.42622067  .00000772  00000+0  24187-3 0  9998
2 11574  74.0679 306.2338 0015005 152.4437 207.7518 14.42254373419341
SL-14 R/B               
1 11672U 80005B   25317.74759352  .00001695  00000+0  16978-3 0  9994
2 11672  82.5158  57.1890 0015619 184.8683 175.2387 14.90737663459218
SL-8 R/B                
1 12139U 81003B   25317.64112978  .00046685  00000+0  12832-2 0  9990
2 12139  82.9337  36.9533 0282523 220.9848 136.9845 15.05565109297184
SL-3 R/B                
1 12465U 81046B   25317.82988174  .00020562  00000+0  53120-3 0  9990
2 12465  81.2330  68.4936 0020610  63.5602 296.7751 15.38773126420594
METEOR PRIRODA          
1 12585U 81065A   25317.57330987  .01215096  10464-2  98252-3 0  9991
2 12585  97.4647  22.3589 0004500 264.1449  95.9324 16.14539865426123
SL-3 R/B                
1 12904U 81103B   25317.82608021  .00013645  00000+0  63563-3 0  9998
2 12904  81.1610 349.2060 0012450 325.8730  34.1699 15.19734247955621
SL-3 R/B                
1 13068U 82013B   25317.82678633  .00010251  00000+0  46178-3 0  9990
2 13068  81.1730 296.4464 0022109 206.2850 153.7261 15.20722753386738
