CCSDS_OMM_VERS = 2.0
CREATION_DATE  = 
ORIGINATOR     = 

OBJECT_NAME    = ATLAS CENTAUR R/B
OBJECT_ID      = 1972-065B
CENTER_NAME    = EARTH
REF_FRAME      = TEME
TIME_SYSTEM    = UTC
MEAN_ELEMENT_THEORY = SGP/SGP4

EPOCH          = 2025-11-13T07:54:13.965120
MEAN_MOTION    = 14.77298935
ECCENTRICITY   = .0033111
INCLINATION    = 35.0017
RA_OF_ASC_NODE = 267.4649
ARG_OF_PERICENTER = 112.0639
MEAN_ANOMALY   = 248.3583

EPHEMERIS_TYPE = 0
CLASSIFICATION_TYPE = U
NORAD_CAT_ID   = 6155
ELEMENT_SET_NO = 999
REV_AT_EPOCH   = 82404
BSTAR          = .47213E-3
MEAN_MOTION_DOT = .3415E-4
MEAN_MOTION_DDOT = 0

CCSDS_OMM_VERS = 2.0
CREATION_DATE  = 
ORIGINATOR     = 

OBJECT_NAME    = SL-8 R/B
OBJECT_ID      = 1975-112B
CENTER_NAME    = EARTH
REF_FRAME      = TEME
TIME_SYSTEM    = UTC
MEAN_ELEMENT_THEORY = SGP/SGP4

EPOCH          = 2025-11-13T18:04:51.517056
MEAN_MOTION    = 14.38119127
ECCENTRICITY   = .0015784
INCLINATION    = 74.0610
RA_OF_ASC_NODE = 232.1708
ARG_OF_PERICENTER = 347.6237
MEAN_ANOMALY   = 12.4527

EPHEMERIS_TYPE = 0
CLASSIFICATION_TYPE = U
NORAD_CAT_ID   = 8459
ELEMENT_SET_NO = 999
REV_AT_EPOCH   = 61520
BSTAR          = .25808E-3
MEAN_MOTION_DOT = .757E-5
MEAN_MOTION_DDOT = 0

CCSDS_OMM_VERS = 2.0
CREATION_DATE  = 
ORIGINATOR     = 

OBJECT_NAME    = SL-3 R/B
OBJECT_ID      = 1977-057B
CENTER_NAME    = EARTH
REF_FRAME      = TEME
TIME_SYSTEM    = UTC
MEAN_ELEMENT_THEORY = SGP/SGP4

EPOCH          = 2025-11-13T19:44:32.443008
MEAN_MOTION    = 15.42031010
ECCENTRICITY   = .0007425
INCLINATION    = 97.5679
RA_OF_ASC_NODE = 120.0473
ARG_OF_PERICENTER = 351.0573
MEAN_ANOMALY   = 9.0540

EPHEMERIS_TYPE = 0
CLASSIFICATION_TYPE = U
NORAD_CAT_ID   = 10114
ELEMENT_SET_NO = 999
REV_AT_EPOCH   = 65045
BSTAR          = .43954E-3
MEAN_MOTION_DOT = .18703E-3
MEAN_MOTION_DDOT = 0

CCSDS_OMM_VERS = 2.0
CREATION_DATE  = 
ORIGINATOR     = 

OBJECT_NAME    = SEASAT 1
OBJECT_ID      = 1978-064A
CENTER_NAME    = EARTH
REF_FRAME      = TEME
TIME_SYSTEM    = UTC
MEAN_ELEMENT_THEORY = SGP/SGP4

EPOCH          = 2025-11-13T18:22:48.864576
MEAN_MOTION    = 14.46014670
ECCENTRICITY   = .0002324
INCLINATION    = 108.0066
RA_OF_ASC_NODE = 242.2569
ARG_OF_PERICENTER = 255.0719
MEAN_ANOMALY   = 105.0169

EPHEMERIS_TYPE = 0
CLASSIFICATION_TYPE = U
NORAD_CAT_ID   = 10967
ELEMENT_SET_NO = 999
REV_AT_EPOCH   = 48975
BSTAR          = .38079E-3
MEAN_MOTION_DOT = .1222E-4
MEAN_MOTION_DDOT = 0

CCSDS_OMM_VERS = 2.0
CREATION_DATE  = 
ORIGINATOR     = 

OBJECT_NAME    = SL-14 R/B
OBJECT_ID      = 1979-011B
CENTER_NAME    = EARTH
REF_FRAME      = TEME
TIME_SYSTEM    = UTC
MEAN_ELEMENT_THEORY = SGP/SGP4

EPOCH          = 2025-11-13T09:47:49.246368
MEAN_MOTION    = 14.91719132
ECCENTRICITY   = .0017704
INCLINATION    = 82.5260
RA_OF_ASC_NODE = 206.8575
ARG_OF_PERICENTER = 86.0634
MEAN_ANOMALY   = 274.2609

EPHEMERIS_TYPE = 0
CLASSIFICATION_TYPE = U
NORAD_CAT_ID   = 11267
ELEMENT_SET_NO = 999
REV_AT_EPOCH   = 51144
BSTAR          = .14428E-3
MEAN_MOTION_DOT = .1481E-4
MEAN_MOTION_DDOT = 0

CCSDS_OMM_VERS = 2.0
CREATION_DATE  = 
ORIGINATOR     = 

OBJECT_NAME    = SL-8 R/B
OBJECT_ID      = 1979-089B
CENTER_NAME    = EARTH
REF_FRAME      = TEME
TIME_SYSTEM    = UTC
MEAN_ELEMENT_THEORY = SGP/SGP4

EPOCH          = 2025-11-13T10:13:45.465888
MEAN_MOTION    = 14.42254373
ECCENTRICITY   = .0015005
INCLINATION    = 74.0679
RA_OF_ASC_NODE = 306.2338
ARG_OF_PERICENTER = 152.4437
MEAN_ANOMALY   = 207.7518

EPHEMERIS_TYPE = 0
CLASSIFICATION_TYPE = U
NORAD_CAT_ID   = 11574
ELEMENT_SET_NO = 999
REV_AT_EPOCH   = 41934
BSTAR          = .24187E-3
MEAN_MOTION_DOT = .772E-5
MEAN_MOTION_DDOT = 0

CCSDS_OMM_VERS = 2.0
CREATION_DATE  = 
ORIGINATOR     = 

OBJECT_NAME    = SL-14 R/B
OBJECT_ID      = 1980-005B
CENTER_NAME    = EARTH
REF_FRAME      = TEME
TIME_SYSTEM    = UTC
MEAN_ELEMENT_THEORY = SGP/SGP4

EPOCH          = 2025-11-13T17:56:32.080128
MEAN_MOTION    = 14.90737663
ECCENTRICITY   = .0015619
INCLINATION    = 82.5158
RA_OF_ASC_NODE = 57.1890
ARG_OF_PERICENTER = 184.8683
MEAN_ANOMALY   = 175.2387

EPHEMERIS_TYPE = 0
CLASSIFICATION_TYPE = U
NORAD_CAT_ID   = 11672
ELEMENT_SET_NO = 999
REV_AT_EPOCH   = 45921
BSTAR          = .16978E-3
MEAN_MOTION_DOT = .1695E-4
MEAN_MOTION_DDOT = 0

CCSDS_OMM_VERS = 2.0
CREATION_DATE  = 
ORIGINATOR     = 

OBJECT_NAME    = SL-8 R/B
OBJECT_ID      = 1981-003B
CENTER_NAME    = EARTH
REF_FRAME      = TEME
TIME_SYSTEM    = UTC
MEAN_ELEMENT_THEORY = SGP/SGP4

EPOCH          = 2025-11-13T15:23:13.612992
MEAN_MOTION    = 15.05565109
ECCENTRICITY   = .0282523
INCLINATION    = 82.9337
RA_OF_ASC_NODE = 36.9533
ARG_OF_PERICENTER = 220.9848
MEAN_ANOMALY   = 136.9845

EPHEMERIS_TYPE = 0
CLASSIFICATION_TYPE = U
NORAD_CAT_ID   = 12139
ELEMENT_SET_NO = 999
REV_AT_EPOCH   = 29718
BSTAR          = .12832E-2
MEAN_MOTION_DOT = .46685E-3
MEAN_MOTION_DDOT = 0

CCSDS_OMM_VERS = 2.0
CREATION_DATE  = 
ORIGINATOR     = 

OBJECT_NAME    = SL-3 R/B
OBJECT_ID      = 1981-046B
CENTER_NAME    = EARTH
REF_FRAME      = TEME
TIME_SYSTEM    = UTC
MEAN_ELEMENT_THEORY = SGP/SGP4

EPOCH          = 2025-11-13T19:55:01.782336
MEAN_MOTION    = 15.38773126
ECCENTRICITY   = .002061
INCLINATION    = 81.2330
RA_OF_ASC_NODE = 68.4936
ARG_OF_PERICENTER = 63.5602
MEAN_ANOMALY   = 296.7751

EPHEMERIS_TYPE = 0
CLASSIFICATION_TYPE = U
NORAD_CAT_ID   = 12465
ELEMENT_SET_NO = 999
REV_AT_EPOCH   = 42059
BSTAR          = .5312E-3
MEAN_MOTION_DOT = .20562E-3
MEAN_MOTION_DDOT = 0

CCSDS_OMM_VERS = 2.0
CREATION_DATE  = 
ORIGINATOR     = 

OBJECT_NAME    = METEOR PRIRODA
OBJECT_ID      = 1981-065A
CENTER_NAME    = EARTH
REF_FRAME      = TEME
TIME_SYSTEM    = UTC
MEAN_ELEMENT_THEORY = SGP/SGP4

EPOCH          = 2025-11-13T13:45:33.972768
MEAN_MOTION    = 16.14539865
ECCENTRICITY   = .00045
INCLINATION    = 97.4647
RA_OF_ASC_NODE = 22.3589
ARG_OF_PERICENTER = 264.1449
MEAN_ANOMALY   = 95.9324

EPHEMERIS_TYPE = 0
CLASSIFICATION_TYPE = U
NORAD_CAT_ID   = 12585
ELEMENT_SET_NO = 999
REV_AT_EPOCH   = 42612
BSTAR          = .98252E-3
MEAN_MOTION_DOT = .1215096E-1
MEAN_MOTION_DDOT = .10464E-2

CCSDS_OMM_VERS = 2.0
CREATION_DATE  = 
ORIGINATOR     = 

OBJECT_NAME    = SL-3 R/B
OBJECT_ID      = 1981-103B
CENTER_NAME    = EARTH
REF_FRAME      = TEME
TIME_SYSTEM    = UTC
MEAN_ELEMENT_THEORY = SGP/SGP4

EPOCH          = 2025-11-13T19:49:33.330144
MEAN_MOTION    = 15.19734247
ECCENTRICITY   = .001245
INCLINATION    = 81.1610
RA_OF_ASC_NODE = 349.2060
ARG_OF_PERICENTER = 325.8730
MEAN_ANOMALY   = 34.1699

EPHEMERIS_TYPE = 0
CLASSIFICATION_TYPE = U
NORAD_CAT_ID   = 12904
ELEMENT_SET_NO = 999
REV_AT_EPOCH   = 95562
BSTAR          = .63563E-3
MEAN_MOTION_DOT = .13645E-3
MEAN_MOTION_DDOT = 0

CCSDS_OMM_VERS = 2.0
CREATION_DATE  = 
ORIGINATOR     = 

OBJECT_NAME    = SL-3 R/B
OBJECT_ID      = 1982-013B
CENTER_NAME    = EARTH
REF_FRAME      = TEME
TIME_SYSTEM    = UTC
MEAN_ELEMENT_THEORY = SGP/SGP4

EPOCH          = 2025-11-13T19:50:34.338912
MEAN_MOTION    = 15.20722753
ECCENTRICITY   = .0022109
INCLINATION    = 81.1730
RA_OF_ASC_NODE = 296.4464
ARG_OF_PERICENTER = 206.2850
MEAN_ANOMALY   = 153.7261

EPHEMERIS_TYPE = 0
CLASSIFICATION_TYPE = U
NORAD_CAT_ID   = 13068
ELEMENT_SET_NO = 999
REV_AT_EPOCH   = 38673
BSTAR          = .46178E-3
MEAN_MOTION_DOT = .10251E-3
MEAN_MOTION_DDOT = 0

